NORAD_CAT_ID,OBJECT_NAME,OBJECT_TYPE,EPOCH,MEAN_MOTION,ECCENTRICITY,INCLINATION,RA_OF_ASC_NODE,ARG_OF_PERICENTER,MEAN_ANOMALY,BSTAR,MEAN_MOTION_DOT,MEAN_MOTION_DDOT,TLE_LINE0,TLE_LINE1,TLE_LINE2,SEMIMAJOR_AXIS,PERIOD,APOGEE,PERIGEE,DECAYED
53857.0,STARLINK-4809,PAYLOAD,2024-07-02 16:34:40,15.08839768,0.0001325,53.2162,174.5368,86.3843,273.7301,4.9441e-05,4.99e-06,0.0,0 STARLINK-4809,1 53857U 22114AR  24184.69075043  .00000499  00000-0  49441-4 0  9999,2 53857  53.2162 174.5368 0001325  86.3843 273.7301 15.08839768 99596,6917.881,95.438,540.663,538.829,0.0
53857.0,STARLINK-4809,PAYLOAD,2024-07-03 22:47:00,15.08840245,0.0001288,53.2148,168.8869,85.8652,274.2487,5.6973e-05,6.19e-06,0.0,0 STARLINK-4809,1 53857U 22114AR  24185.94930789  .00000619  00000-0  56973-4 0  9997,2 53857  53.2148 168.8869 0001288  85.8652 274.2487 15.08840245100329,6917.88,95.438,540.636,538.854,0.0
53857.0,STARLINK-4809,PAYLOAD,2024-07-04 05:08:33,15.08837548,0.0001346,53.2156,167.6973,87.9585,272.1561,3.9007e-05,3.33e-06,0.0,0 STARLINK-4809,1 53857U 22114AR  24186.21427094  .00000333  00000-0  39007-4 0  9990,2 53857  53.2156 167.6973 0001346  87.9585 272.1561 15.08837548 99828,6917.888,95.438,540.684,538.822,0.0
53857.0,STARLINK-4809,PAYLOAD,2024-07-04 16:16:14,15.08843626,0.0001378,53.2157,165.616,87.6822,272.4328,7.2486e-05,8.66e-06,0.0,0 STARLINK-4809,1 53857U 22114AR  24186.67794560  .00000866  00000-0  72486-4 0  9994,2 53857  53.2157 165.6160 0001378  87.6822 272.4328 15.08843626 99896,6917.869,95.437,540.688,538.781,0.0
53857.0,STARLINK-4809,PAYLOAD,2024-07-04 22:37:47,15.08837664,0.0001505,53.2149,164.4252,92.6253,267.4911,3.6572e-05,2.94e-06,0.0,0 STARLINK-4809,1 53857U 22114AR  24186.94291063  .00000294  00000-0  36572-4 0  9995,2 53857  53.2149 164.4252 0001505  92.6253 267.4911 15.08837664100476,6917.888,95.438,540.794,538.711,0.0
53857.0,STARLINK-4809,PAYLOAD,2024-07-05 04:59:20,15.08839528,0.0001414,53.2164,163.2365,95.3236,264.7918,1.1357e-05,-1.07e-06,0.0,0 STARLINK-4809,1 53857U 22114AR  24187.20787048 -.00000107  00000-0  11357-4 0  9996,2 53857  53.2164 163.2365 0001414  95.3236 264.7918 15.08839528 99975,6917.882,95.438,540.725,538.769,0.0
53857.0,STARLINK-4809,PAYLOAD,2024-07-05 08:10:06,15.08841138,0.0001394,53.2164,162.6413,91.628,268.4872,2.1538e-05,5.5e-07,0.0,0 STARLINK-4809,1 53857U 22114AR  24187.34034910  .00000055  00000-0  21538-4 0  9997,2 53857  53.2164 162.6413 0001394  91.6280 268.4872 15.08841138100532,6917.877,95.437,540.706,538.778,0.0
53857.0,STARLINK-4809,PAYLOAD,2024-07-06 08:00:53,15.0883629,0.0001515,53.2163,158.1821,91.2338,268.8827,-7.0033e-06,-3.99e-06,0.0,0 STARLINK-4809,1 53857U 22114AR  24188.33395395 -.00000399  00000-0 -70033-5 0  9992,2 53857  53.2163 158.1821 0001515  91.2338 268.8827 15.08836290100143,6917.892,95.438,540.805,538.709,0.0
53857.0,STARLINK-4809,PAYLOAD,2024-07-06 22:19:21,15.0883495,0.0001391,53.2157,155.5063,88.1696,271.9455,3.0431e-05,1.96e-06,0.0,0 STARLINK-4809,1 53857U 22114AR  24188.93011374  .00000196  00000-0  30431-4 0  9990,2 53857  53.2157 155.5063 0001391  88.1696 271.9455 15.08834950100771,6917.896,95.438,540.723,538.799,0.0
53857.0,STARLINK-4809,PAYLOAD,2024-07-07 04:40:54,15.08837356,0.0001312,53.2162,154.3151,85.8516,274.2626,3.5229e-06,-2.32e-06,0.0,0 STARLINK-4809,1 53857U 22114AR  24189.19507376 -.00000232  00000-0  35229-5 0  9994,2 53857  53.2162 154.3151 0001312  85.8516 274.2626 15.08837356100814,6917.888,95.438,540.661,538.846,0.0
53857.0,STARLINK-4809,PAYLOAD,2024-07-08 01:20:55,15.08834397,0.00013,53.2166,150.4496,85.486,274.628,2.8807e-05,1.71e-06,0.0,0 STARLINK-4809,1 53857U 22114AR  24190.05619673  .00000171  00000-0  28807-4 0  9999,2 53857  53.2166 150.4496 0001300  85.4860 274.6280 15.08834397100409,6917.898,95.438,540.662,538.863,0.0
53857.0,STARLINK-4809,PAYLOAD,2024-07-08 14:03:59,15.08844155,0.0001324,53.2164,148.0716,88.1781,271.9363,0.00010482,1.381e-05,0.0,0 STARLINK-4809,1 53857U 22114AR  24190.58610835  .00001381  00000-0  10482-3 0  9991,2 53857  53.2164 148.0716 0001324  88.1781 271.9363 15.08844155101027,6917.868,95.437,540.649,538.817,0.0
53857.0,STARLINK-4809,PAYLOAD,2024-07-09 04:22:29,15.08831821,0.0001409,53.2169,145.3961,88.8885,271.2268,1.1139e-07,-2.86e-06,0.0,0 STARLINK-4809,1 53857U 22114AR  24191.18228228 -.00000286  00000-0  11139-6 0  9996,2 53857  53.2169 145.3961 0001409  88.8885 271.2268 15.08831821100572,6917.905,95.438,540.745,538.796,0.0
53857.0,STARLINK-4809,PAYLOAD,2024-07-09 13:54:47,15.08841983,0.0001424,53.2173,143.6119,87.1967,272.9188,6.7902e-05,7.93e-06,0.0,0 STARLINK-4809,1 53857U 22114AR  24191.57971460  .00000793  00000-0  67902-4 0  9991,2 53857  53.2173 143.6119 0001424  87.1967 272.9188 15.08841983101179,6917.874,95.437,540.724,538.754,0.0
53857.0,STARLINK-4809,PAYLOAD,2024-07-10 04:13:16,15.08830757,0.000139,53.2164,140.9353,89.3733,270.7419,-7.4707e-06,-4.07e-06,0.0,0 STARLINK-4809,1 53857U 22114AR  24192.17588645 -.00000407  00000-0 -74707-5 0  9993,2 53857  53.2164 140.9353 0001390  89.3733 270.7419 15.08830757100726,6917.909,95.438,540.735,538.812,0.0
53857.0,STARLINK-4809,PAYLOAD,2024-07-10 13:45:34,15.08844163,0.0001345,53.2161,139.1505,86.4947,273.6199,3.1954e-05,2.21e-06,0.0,0 STARLINK-4809,1 53857U 22114AR  24192.57331714  .00000221  00000-0  31954-4 0  9998,2 53857  53.2161 139.1505 0001345  86.4947 273.6199 15.08844163101327,6917.868,95.437,540.663,538.802,0.0
53857.0,STARLINK-4809,PAYLOAD,2024-07-10 20:07:07,15.08834114,0.0001475,53.2171,137.9641,87.2996,272.8165,0.00010181,1.332e-05,0.0,0 STARLINK-4809,1 53857U 22114AR  24192.83828228  .00001332  00000-0  10181-3 0  9990,2 53857  53.2171 137.9641 0001475  87.2996 272.8165 15.08834114100825,6917.898,95.438,540.784,538.743,0.0
53857.0,STARLINK-4809,PAYLOAD,2024-07-11 05:39:26,15.08840895,0.0001398,53.2177,136.1711,96.0259,264.0893,8.8569e-05,1.122e-05,0.0,0 STARLINK-4809,1 53857U 22114AR  24193.23571925  .00001122  00000-0  88569-4 0  9997,2 53857  53.2177 136.1711 0001398  96.0259 264.0893 15.08840895101425,6917.878,95.437,540.71,538.776,0.0
53857.0,STARLINK-4809,PAYLOAD,2024-07-12 02:19:26,15.08838692,0.0001488,53.2171,132.3109,88.7455,271.3708,0.0001294,1.772e-05,0.0,0 STARLINK-4809,1 53857U 22114AR  24194.09684005  .00001772  00000-0  12940-3 0  9996,2 53857  53.2171 132.3109 0001488  88.7455 271.3708 15.08838692101017,6917.884,95.438,540.779,538.72,0.0
53857.0,STARLINK-4809,PAYLOAD,2024-07-12 13:27:08,15.08845508,0.000139,53.2173,130.23,93.3483,266.7668,0.00012618,1.721e-05,0.0,0 STARLINK-4809,1 53857U 22114AR  24194.56051549  .00001721  00000-0  12618-3 0  9995,2 53857  53.2173 130.2300 0001390  93.3483 266.7668 15.08845508101628,6917.864,95.437,540.69,538.767,0.0
53857.0,STARLINK-4809,PAYLOAD,2024-07-12 22:59:27,15.08839625,0.0001674,53.218,128.4473,89.8487,270.2697,4.8691e-05,4.87e-06,0.0,0 STARLINK-4809,1 53857U 22114AR  24194.95796164  .00000487  00000-0  48691-4 0  9996,2 53857  53.2180 128.4473 0001674  89.8487 270.2697 15.08839625101686,6917.882,95.438,540.905,538.588,0.0
53857.0,STARLINK-4809,PAYLOAD,2024-07-13 05:21:00,15.0884486,0.0001511,53.2179,127.2548,100.4807,259.6356,4.7127e-06,-2.13e-06,0.0,0 STARLINK-4809,1 53857U 22114AR  24195.22291828 -.00000213  00000-0  47127-5 0  9996,2 53857  53.2179 127.2548 0001511 100.4807 259.6356 15.08844860101185,6917.866,95.437,540.776,538.685,0.0
53857.0,STARLINK-4809,PAYLOAD,2024-07-13 22:50:14,15.08837586,0.0001403,53.2177,123.9827,102.1175,257.9974,7.7067e-05,9.39e-06,0.0,0 STARLINK-4809,1 53857U 22114AR  24195.95155920  .00000939  00000-0  77067-4 0  9997,2 53857  53.2177 123.9827 0001403 102.1175 257.9974 15.08837586101839,6917.888,95.438,540.723,538.782,0.0
53857.0,STARLINK-4809,PAYLOAD,2024-07-14 02:01:01,15.08843187,0.0001289,53.217,123.3928,83.0431,277.0708,1.9054e-06,-2.58e-06,0.0,0 STARLINK-4809,1 53857U 22114AR  24196.08403962 -.00000258  00000-0  19054-5 0  9992,2 53857  53.2170 123.3928 0001289  83.0431 277.0708 15.08843187101856,6917.871,95.437,540.627,538.844,0.0
53857.0,STARLINK-4809,PAYLOAD,2024-07-14 19:30:15,15.08836065,0.0001241,53.2166,120.1197,89.4247,270.6888,7.5361e-05,9.12e-06,0.0,0 STARLINK-4809,1 53857U 22114AR  24196.81268095  .00000912  00000-0  75361-4 0  9997,2 53857  53.2166 120.1197 0001241  89.4247 270.6888 15.08836065101425,6917.892,95.438,540.616,538.899,0.0
53857.0,STARLINK-4809,PAYLOAD,2024-07-14 22:41:02,15.08835609,0.000132,53.2168,119.5223,94.0789,266.0354,3.1529e-05,2.14e-06,0.0,0 STARLINK-4809,1 53857U 22114AR  24196.94516285  .00000214  00000-0  31529-4 0  9991,2 53857  53.2168 119.5223 0001320  94.0789 266.0354 15.08835609101981,6917.894,95.438,540.672,538.846,0.0
53857.0,STARLINK-4809,PAYLOAD,2024-07-15 11:24:05,15.08853172,0.0001333,53.2186,117.1464,101.0308,259.0835,0.0001208,1.636e-05,0.0,0 STARLINK-4809,1 53857U 22114AR  24197.47506847  .00001636  00000-0  12080-3 0  9992,2 53857  53.2186 117.1464 0001333 101.0308 259.0835 15.08853172101523,6917.84,95.437,540.627,538.783,0.0
53857.0,STARLINK-4809,PAYLOAD,2024-07-15 22:31:50,15.08823227,0.0001243,53.2171,115.0621,71.1861,288.9266,-9.1836e-05,-1.748e-05,0.0,0 STARLINK-4809,1 53857U 22114AR  24197.93877613 -.00001748  00000-0 -91836-4 0  9998,2 53857  53.2171 115.0621 0001243  71.1861 288.9266 15.08823227102135,6917.932,95.439,540.657,538.937,0.0
53857.0,STARLINK-4809,PAYLOAD,2024-07-16 01:42:36,15.08829061,0.0001334,53.2175,114.4741,99.9749,260.1394,-3.8529e-05,-9.01e-06,0.0,0 STARLINK-4809,1 53857U 22114AR  24198.07125158 -.00000901  00000-0 -38529-4 0  9994,2 53857  53.2175 114.4741 0001334  99.9749 260.1394 15.08829061101617,6917.914,95.438,540.702,538.856,0.0
53857.0,STARLINK-4809,PAYLOAD,2024-07-16 22:22:35,15.0884262,0.0001541,53.2186,110.6084,112.6341,247.4814,0.00012835,1.755e-05,0.0,0 STARLINK-4809,1 53857U 22114AR  24198.93235887  .00001755  00000-0  12835-3 0  9997,2 53857  53.2186 110.6084 0001541 112.6341 247.4814 15.08842620102283,6917.872,95.437,540.803,538.671,0.0
